start=new Date('2022-01-29T00:00:00.000Z').valueOf();
sats=[{"EPHEMERIS_TYPE":"0","COUNTRY_CODE":"US","RCS_SIZE":"LARGE","TLE_LINE1":"1 46783U 20074AW  22028.86926268 -.00000914  00000-0 -42487-4 0  9997","MEAN_ANOMALY":"281.4754","RA_OF_ASC_NODE":"209.0684","BSTAR":"-0.00004248700000","LAUNCH_DATE":"2020-10-24","SEMIMAJOR_AXIS":"6925.377","ECCENTRICITY":"0.00020680","MEAN_MOTION_DOT":"-0.00000914","PERIOD":"95.593","MEAN_MOTION_DDOT":"0.0000000000000","INCLINATION":"53.0540","SITE":"AFETR","CENTER_NAME":"EARTH","GP_ID":"194844161","OBJECT_NAME":"STARLINK-1851","CLASSIFICATION_TYPE":"U","EPOCH":"2022-01-28T20:51:44.295552","PERIAPSIS":"545.810","MEAN_MOTION":"15.06390747","ELEMENT_SET_NO":"999","OBJECT_ID":"2020-074AW","APOAPSIS":"548.674","DECAY_DATE":null,"REV_AT_EPOCH":"7060","NORAD_CAT_ID":"46783","REF_FRAME":"TEME","OBJECT_TYPE":"PAYLOAD","TIME_SYSTEM":"UTC","FILE":"3286235","ARG_OF_PERICENTER":"78.6467","MEAN_ELEMENT_THEORY":"SGP4","TLE_LINE2":"2 46783  53.0540 209.0684 0002068  78.6467 281.4754 15.06390747 70606"},{"OBJECT_ID":"2020-074AX","MEAN_MOTION":"15.06393191","ELEMENT_SET_NO":"999","MEAN_ELEMENT_THEORY":"SGP4","TLE_LINE2":"2 46784  53.0559 209.0477 0001927  88.3349 271.7860 15.06393191 70603","ARG_OF_PERICENTER":"88.3349","FILE":"3286235","TIME_SYSTEM":"UTC","OBJECT_TYPE":"PAYLOAD","NORAD_CAT_ID":"46784","REF_FRAME":"TEME","DECAY_DATE":null,"REV_AT_EPOCH":"7060","APOAPSIS":"548.569","RA_OF_ASC_NODE":"209.0477","LAUNCH_DATE":"2020-10-24","BSTAR":"0.00001751100000","SEMIMAJOR_AXIS":"6925.369","TLE_LINE1":"1 46784U 20074AX  22028.87294200 -.00000021  00000-0  17511-4 0  9991","MEAN_ANOMALY":"271.7860","RCS_SIZE":"LARGE","COUNTRY_CODE":"US","EPHEMERIS_TYPE":"0","OBJECT_NAME":"STARLINK-1882","CLASSIFICATION_TYPE":"U","PERIAPSIS":"545.900","EPOCH":"2022-01-28T20:57:02.188800","GP_ID":"194844913","SITE":"AFETR","CENTER_NAME":"EARTH","MEAN_MOTION_DDOT":"0.0000000000000","INCLINATION":"53.0559","PERIOD":"95.593","MEAN_MOTION_DOT":"-0.00000021","ECCENTRICITY":"0.00019270"},{"TLE_LINE2":"2 46785  53.0532 209.1218 0001941  82.4785 277.6425 15.06396034 70605","MEAN_ELEMENT_THEORY":"SGP4","FILE":"3286235","ARG_OF_PERICENTER":"82.4785","TIME_SYSTEM":"UTC","OBJECT_TYPE":"PAYLOAD","NORAD_CAT_ID":"46785","REF_FRAME":"TEME","DECAY_DATE":null,"REV_AT_EPOCH":"7060","APOAPSIS":"548.570","OBJECT_ID":"2020-074AY","MEAN_MOTION":"15.06396034","ELEMENT_SET_NO":"999","CLASSIFICATION_TYPE":"U","OBJECT_NAME":"STARLINK-1883","PERIAPSIS":"545.882","EPOCH":"2022-01-28T20:35:48.155136","GP_ID":"194844664","CENTER_NAME":"EARTH","SITE":"AFETR","MEAN_MOTION_DDOT":"0.0000000000000","INCLINATION":"53.0532","PERIOD":"95.592","ECCENTRICITY":"0.00019410","MEAN_MOTION_DOT":"-0.00000841","RA_OF_ASC_NODE":"209.1218","LAUNCH_DATE":"2020-10-24","SEMIMAJOR_AXIS":"6925.361","BSTAR":"-0.00003758300000","TLE_LINE1":"1 46785U 20074AY  22028.85819624 -.00000841  00000-0 -37583-4 0  9995","MEAN_ANOMALY":"277.6425","RCS_SIZE":"LARGE","COUNTRY_CODE":"US","EPHEMERIS_TYPE":"0"},{"OBJECT_ID":"2020-074AZ","MEAN_MOTION":"15.06388790","ELEMENT_SET_NO":"999","NORAD_CAT_ID":"46786","REF_FRAME":"TEME","DECAY_DATE":null,"REV_AT_EPOCH":"7088","APOAPSIS":"548.001","MEAN_ELEMENT_THEORY":"SGP4","TLE_LINE2":"2 46786  53.0547 189.1979 0001088 177.0900 183.0095 15.06388790 70888","FILE":"3286235","ARG_OF_PERICENTER":"177.0900","TIME_SYSTEM":"UTC","OBJECT_TYPE":"PAYLOAD","RCS_SIZE":"LARGE","COUNTRY_CODE":"US","EPHEMERIS_TYPE":"0","RA_OF_ASC_NODE":"189.1979","LAUNCH_DATE":"2020-10-24","BSTAR":"-0.00005888900000","SEMIMAJOR_AXIS":"6925.383","TLE_LINE1":"1 46786U 20074AZ  22028.83793507 -.00001158  00000-0 -58889-4 0  9999","MEAN_ANOMALY":"183.0095","MEAN_MOTION_DDOT":"0.0000000000000","INCLINATION":"53.0547","PERIOD":"95.593","MEAN_MOTION_DOT":"-0.00001158","ECCENTRICITY":"0.00010880","OBJECT_NAME":"STARLINK-1893","CLASSIFICATION_TYPE":"U","EPOCH":"2022-01-28T20:06:37.590048","PERIAPSIS":"546.494","GP_ID":"194843412","SITE":"AFETR","CENTER_NAME":"EARTH"},{"TLE_LINE1":"1 46787U 20074BA  22028.83055163 -.00000570  00000-0 -19416-4 0  9999","MEAN_ANOMALY":"176.3268","RA_OF_ASC_NODE":"189.2271","LAUNCH_DATE":"2020-10-24","BSTAR":"-0.00001941600000","SEMIMAJOR_AXIS":"6925.372","EPHEMERIS_TYPE":"0","COUNTRY_CODE":"US","RCS_SIZE":"LARGE","SITE":"AFETR","CENTER_NAME":"EARTH","GP_ID":"194843662","CLASSIFICATION_TYPE":"U","OBJECT_NAME":"STARLINK-1899","EPOCH":"2022-01-28T19:55:59.660832","PERIAPSIS":"546.352","ECCENTRICITY":"0.00012790","MEAN_MOTION_DOT":"-0.00000570","PERIOD":"95.593","MEAN_MOTION_DDOT":"0.0000000000000","INCLINATION":"53.0539","MEAN_MOTION":"15.06392190","ELEMENT_SET_NO":"999","OBJECT_ID":"2020-074BA","OBJECT_TYPE":"PAYLOAD","TIME_SYSTEM":"UTC","ARG_OF_PERICENTER":"183.7711","FILE":"3286235","TLE_LINE2":"2 46787  53.0539 189.2271 0001279 183.7711 176.3268 15.06392190 70888","MEAN_ELEMENT_THEORY":"SGP4","APOAPSIS":"548.123","DECAY_DATE":null,"REV_AT_EPOCH":"7088","NORAD_CAT_ID":"46787","REF_FRAME":"TEME"},{"ELEMENT_SET_NO":"999","MEAN_MOTION":"15.06395735","OBJECT_ID":"2020-074BB","TIME_SYSTEM":"UTC","OBJECT_TYPE":"PAYLOAD","MEAN_ELEMENT_THEORY":"SGP4","TLE_LINE2":"2 46788  53.0542 189.2789 0000143  69.4598 290.6406 15.06395735 70881","FILE":"3286235","ARG_OF_PERICENTER":"69.4598","APOAPSIS":"547.326","REF_FRAME":"TEME","NORAD_CAT_ID":"46788","REV_AT_EPOCH":"7088","DECAY_DATE":null,"MEAN_ANOMALY":"290.6406","TLE_LINE1":"1 46788U 20074BB  22028.82317754 -.00000235  00000-0  30982-5 0  9995","BSTAR":"0.00000309820000","LAUNCH_DATE":"2020-10-24","SEMIMAJOR_AXIS":"6925.362","RA_OF_ASC_NODE":"189.2789","EPHEMERIS_TYPE":"0","RCS_SIZE":"LARGE","COUNTRY_CODE":"US","CENTER_NAME":"EARTH","SITE":"AFETR","PERIAPSIS":"547.128","EPOCH":"2022-01-28T19:45:22.539456","OBJECT_NAME":"STARLINK-1929","CLASSIFICATION_TYPE":"U","GP_ID":"194844414","PERIOD":"95.592","MEAN_MOTION_DOT":"-0.00000235","ECCENTRICITY":"0.00001430","INCLINATION":"53.0542","MEAN_MOTION_DDOT":"0.0000000000000"},{"PERIOD":"95.594","ECCENTRICITY":"0.00018850","MEAN_MOTION_DOT":"-0.00002722","INCLINATION":"53.0532","MEAN_MOTION_DDOT":"0.0000000000000","SITE":"AFETR","CENTER_NAME":"EARTH","PERIAPSIS":"545.999","EPOCH":"2022-01-28T21:31:31.996704","OBJECT_NAME":"STARLINK-1930","CLASSIFICATION_TYPE":"U","GP_ID":"194845164","EPHEMERIS_TYPE":"0","RCS_SIZE":"LARGE","COUNTRY_CODE":"US","MEAN_ANOMALY":"279.5860","TLE_LINE1":"1 46789U 20074BC  22028.89689811 -.00002722  00000-0 -16400-3 0  9990","LAUNCH_DATE":"2020-10-24","BSTAR":"-0.00016400000000","SEMIMAJOR_AXIS":"6925.440","RA_OF_ASC_NODE":"218.9306","APOAPSIS":"548.610","REF_FRAME":"TEME","NORAD_CAT_ID":"46789","REV_AT_EPOCH":"7047","DECAY_DATE":null,"TIME_SYSTEM":"UTC","OBJECT_TYPE":"PAYLOAD","MEAN_ELEMENT_THEORY":"SGP4","TLE_LINE2":"2 46789  53.0532 218.9306 0001885  80.5342 279.5860 15.06370251 70472","ARG_OF_PERICENTER":"80.5342","FILE":"3286235","ELEMENT_SET_NO":"999","MEAN_MOTION":"15.06370251","OBJECT_ID":"2020-074BC"},{"GP_ID":"194843912","OBJECT_NAME":"STARLINK-1931","CLASSIFICATION_TYPE":"U","PERIAPSIS":"545.792","EPOCH":"2022-01-28T19:25:27.438240","CENTER_NAME":"EARTH","SITE":"AFETR","MEAN_MOTION_DDOT":"0.0000000000000","INCLINATION":"53.0540","MEAN_MOTION_DOT":"-0.00001363","ECCENTRICITY":"0.00019910","PERIOD":"95.591","RA_OF_ASC_NODE":"219.3279","LAUNCH_DATE":"2020-10-24","SEMIMAJOR_AXIS":"6925.306","BSTAR":"-0.00007254500000","TLE_LINE1":"1 46790U 20074BD  22028.80934535 -.00001363  00000-0 -72545-4 0  9992","MEAN_ANOMALY":"286.6879","COUNTRY_CODE":"US","RCS_SIZE":"LARGE","EPHEMERIS_TYPE":"0","ARG_OF_PERICENTER":"73.4328","FILE":"3286235","TLE_LINE2":"2 46790  53.0540 219.3279 0001991  73.4328 286.6879 15.06413803 70458","MEAN_ELEMENT_THEORY":"SGP4","OBJECT_TYPE":"PAYLOAD","TIME_SYSTEM":"UTC","DECAY_DATE":null,"REV_AT_EPOCH":"7045","NORAD_CAT_ID":"46790","REF_FRAME":"TEME","APOAPSIS":"548.550","OBJECT_ID":"2020-074BD","MEAN_MOTION":"15.06413803","ELEMENT_SET_NO":"999"},{"APOAPSIS":"548.604","REV_AT_EPOCH":"7046","DECAY_DATE":null,"REF_FRAME":"TEME","NORAD_CAT_ID":"46791","OBJECT_TYPE":"PAYLOAD","TIME_SYSTEM":"UTC","FILE":"3286235","ARG_OF_PERICENTER":"75.8084","MEAN_ELEMENT_THEORY":"SGP4","TLE_LINE2":"2 46791  53.0527 219.2619 0001997  75.8084 284.3126 15.06397472 70466","ELEMENT_SET_NO":"999","MEAN_MOTION":"15.06397472","OBJECT_ID":"2020-074BE","ECCENTRICITY":"0.00019970","MEAN_MOTION_DOT":"0.00000874","PERIOD":"95.592","INCLINATION":"53.0527","MEAN_MOTION_DDOT":"0.0000000000000","SITE":"AFETR","CENTER_NAME":"EARTH","GP_ID":"194844162","PERIAPSIS":"545.838","EPOCH":"2022-01-28T19:46:42.068928","OBJECT_NAME":"STARLINK-1933","CLASSIFICATION_TYPE":"U","EPHEMERIS_TYPE":"0","COUNTRY_CODE":"US","RCS_SIZE":"LARGE","MEAN_ANOMALY":"284.3126","TLE_LINE1":"1 46791U 20074BE  22028.82409802  .00000874  00000-0  77602-4 0  9992","SEMIMAJOR_AXIS":"6925.356","LAUNCH_DATE":"2020-10-24","BSTAR":"0.00007760200000","RA_OF_ASC_NODE":"219.2619"},{"SITE":"AFETR","CENTER_NAME":"EARTH","GP_ID":"194844914","EPOCH":"2022-01-28T18:49:40.384416","PERIAPSIS":"546.049","OBJECT_NAME":"STARLINK-1934","CLASSIFICATION_TYPE":"U","MEAN_MOTION_DOT":"-0.00000455","ECCENTRICITY":"0.00017330","PERIOD":"95.593","INCLINATION":"53.0528","MEAN_MOTION_DDOT":"0.0000000000000","MEAN_ANOMALY":"288.2286","TLE_LINE1":"1 46792U 20074BF  22028.78449519 -.00000455  00000-0 -11677-4 0  9994","LAUNCH_DATE":"2020-10-24","BSTAR":"-0.00001167700000","SEMIMAJOR_AXIS":"6925.384","RA_OF_ASC_NODE":"209.4384","EPHEMERIS_TYPE":"0","COUNTRY_CODE":"US","RCS_SIZE":"LARGE","OBJECT_TYPE":"PAYLOAD","TIME_SYSTEM":"UTC","ARG_OF_PERICENTER":"71.8891","FILE":"3286235","TLE_LINE2":"2 46792  53.0528 209.4384 0001733  71.8891 288.2286 15.06388512 70597","MEAN_ELEMENT_THEORY":"SGP4","APOAPSIS":"548.449","REV_AT_EPOCH":"7059","DECAY_DATE":null,"REF_FRAME":"TEME","NORAD_CAT_ID":"46792","ELEMENT_SET_NO":"999","MEAN_MOTION":"15.06388512","OBJECT_ID":"2020-074BF"}];
